{
  "norad_id": 65783,
  "name": "KUIPER-00170",
  "history": [
    {
      "epoch": "2026-03-28T21:37:16.597920Z",
      "apogee_km": 630.4050906712318,
      "perigee_km": 628.7910691276293,
      "latitude_deg": -1.6296031846334158e-05,
      "longitude_deg": 162.50173906208508,
      "height_km": 630.4856394105722,
      "semi_major_axis_km": 7007.73507989943,
      "eccentricity": 0.00011516,
      "inclination_deg": 51.8991,
      "raan_deg": 313.1356,
      "arg_perigee_deg": 100.1609,
      "mean_anomaly_deg": 259.9483,
      "mean_motion_rev_day": 14.79913217
    },
    {
      "epoch": "2026-03-29T00:51:45.857952Z",
      "apogee_km": 630.2349740044547,
      "perigee_km": 628.9385451089356,
      "latitude_deg": -3.2354994207002385e-05,
      "longitude_deg": 113.15008764076823,
      "height_km": 630.4548572889876,
      "semi_major_axis_km": 7007.723759556695,
      "eccentricity": 9.25e-05,
      "inclination_deg": 51.9001,
      "raan_deg": 312.539,
      "arg_perigee_deg": 100.8931,
      "mean_anomaly_deg": 259.2135,
      "mean_motion_rev_day": 14.79916803
    },
    {
      "epoch": "2026-03-29T23:33:10.998720Z",
      "apogee_km": 630.1990054977769,
      "perigee_km": 628.9488298700626,
      "latitude_deg": 1.4282075658589072e-05,
      "longitude_deg": 127.68301308887352,
      "height_km": 630.4627374740085,
      "semi_major_axis_km": 7007.710917683919,
      "eccentricity": 8.92e-05,
      "inclination_deg": 51.8997,
      "raan_deg": 308.3585,
      "arg_perigee_deg": 103.2449,
      "mean_anomaly_deg": 256.8613,
      "mean_motion_rev_day": 14.79920871
    },
    {
      "epoch": "2026-03-29T23:33:10.999584Z",
      "apogee_km": 630.1990755748866,
      "perigee_km": 628.9487597929538,
      "latitude_deg": 1.3385431218865465e-05,
      "longitude_deg": 127.6830087797756,
      "height_km": 630.462753531045,
      "semi_major_axis_km": 7007.710917683919,
      "eccentricity": 8.921e-05,
      "inclination_deg": 51.8997,
      "raan_deg": 308.3585,
      "arg_perigee_deg": 103.2449,
      "mean_anomaly_deg": 256.8613,
      "mean_motion_rev_day": 14.79920871
    },
    {
      "epoch": "2026-03-30T14:08:22.446816Z",
      "apogee_km": 630.1921962230972,
      "perigee_km": 628.922682298482,
      "latitude_deg": -3.664779769593028e-06,
      "longitude_deg": -94.40134743426478,
      "height_km": 630.4563465532009,
      "semi_major_axis_km": 7007.694439260789,
      "eccentricity": 9.058e-05,
      "inclination_deg": 51.8994,
      "raan_deg": 305.6709,
      "arg_perigee_deg": 103.9799,
      "mean_anomaly_deg": 256.1264,
      "mean_motion_rev_day": 14.79926091
    },
    {
      "epoch": "2026-03-30T20:37:20.758656Z",
      "apogee_km": 630.1673622447179,
      "perigee_km": 628.9257408730518,
      "latitude_deg": 1.9736129441871032e-05,
      "longitude_deg": 166.89506334714565,
      "height_km": 630.4440744426475,
      "semi_major_axis_km": 7007.683551558885,
      "eccentricity": 8.859e-05,
      "inclination_deg": 51.8992,
      "raan_deg": 304.4765,
      "arg_perigee_deg": 104.1685,
      "mean_anomaly_deg": 255.9376,
      "mean_motion_rev_day": 14.7992954
    }
  ]
}